{"type": "FeatureCollection", "features": [ {"type": "Feature", "properties": {"norad_id": 45358, "name": "COSMOS 2545 (760)", "group": "gnss", "lat": -35.80333928096195, "lon": 159.3830857386576, "alt_km": 19107.624577889892, "timestamp": "2025-12-05T05:43:15.352835+00:00", "meta": {"OBJECT_NAME": "COSMOS 2545 (760)", "OBJECT_ID": "2020-018A", "EPOCH": "2025-12-01T04:43:25.038912", "MEAN_MOTION": 2.13102323, "ECCENTRICITY": 0.00119194, "INCLINATION": 64.4762, "RA_OF_ASC_NODE": 319.3749, "ARG_OF_PERICENTER": 248.338, "MEAN_ANOMALY": 111.5456, "EPHEMERIS_TYPE": 0, "CLASSIFICATION_TYPE": "U", "NORAD_CAT_ID": 45358, "ELEMENT_SET_NO": 999, "REV_AT_EPOCH": 4444, "BSTAR": 0, "MEAN_MOTION_DOT": -2.8e-07, "MEAN_MOTION_DDOT": 0}, "tle": {"line1": "1 45358U 20018A   25335.19681758 -.00000028  00000+0  00000+0 0  9998", "line2": "2 45358  64.4762 319.3749 0011919 248.3380 111.5456  2.13102323 44447"}}, "geometry": {"type": "Point", "coordinates": [159.3830857386576, -35.80333928096195]}}, {"type": "Feature", "properties": {"norad_id": 45807, "name": "BEIDOU-3 G3 (C61)", "group": "gnss", "lat": -0.8245821583390542, "lon": -89.49571871063851, "alt_km": 35791.73883340015, "timestamp": "2025-12-05T05:43:15.352849+00:00", "meta": {"OBJECT_NAME": "BEIDOU-3 G3 (C61)", "OBJECT_ID": "2020-040A", "EPOCH": "2025-12-04T14:15:09.086688", "MEAN_MOTION": 1.00265967, "ECCENTRICITY": 0.0005053, "INCLINATION": 1.9702, "RA_OF_ASC_NODE": 66.5394, "ARG_OF_PERICENTER": 304.078, "MEAN_ANOMALY": 27.323, "EPHEMERIS_TYPE": 0, "CLASSIFICATION_TYPE": "U", "NORAD_CAT_ID": 45807, "ELEMENT_SET_NO": 999, "REV_AT_EPOCH": 2011, "BSTAR": 0, "MEAN_MOTION_DOT": -3.4e-06, "MEAN_MOTION_DDOT": 0}, "tle": {"line1": "1 45807U 20040A   25338.59385517 -.00000340  00000+0  00000+0 0  9990", "line2": "2 45807   1.9702  66.5394 0005053 304.0780  27.3230  1.00265967 20110"}}, "geometry": {"type": "Point", "coordinates": [-89.49571871063851, -0.8245821583390542]}}, {"type": "Feature", "properties": {"norad_id": 45854, "name": "GPS BIII-3  (PRN 23)", "group": "gnss", "lat": -25.698084007028612, "lon": 17.962193604399733, "alt_km": 20278.43817909665, "timestamp": "2025-12-05T05:43:15.352860+00:00", "meta": {"OBJECT_NAME": "GPS BIII-3  (PRN 23)", "OBJECT_ID": "2020-041A", "EPOCH": "2025-12-03T06:48:38.769120", "MEAN_MOTION": 2.00561684, "ECCENTRICITY": 0.0060262, "INCLINATION": 56.5402, "RA_OF_ASC_NODE": 36.5545, "ARG_OF_PERICENTER": 203.0015, "MEAN_ANOMALY": 153.8862, "EPHEMERIS_TYPE": 0, "CLASSIFICATION_TYPE": "U", "NORAD_CAT_ID": 45854, "ELEMENT_SET_NO": 999, "REV_AT_EPOCH": 4010, "BSTAR": 0, "MEAN_MOTION_DOT": -6.6e-07, "MEAN_MOTION_DDOT": 0}, "tle": {"line1": "1 45854U 20041A   25337.28378205 -.00000066  00000+0  00000+0 0  9999", "line2": "2 45854  56.5402  36.5545 0060262 203.0015 153.8862  2.00561684 40105"}}, "geometry": {"type": "Point", "coordinates": [17.962193604399733, -25.698084007028612]}}, {"type": "Feature", "properties": {"norad_id": 46114, "name": "GALAXY 30 (WAAS/PRN 135)", "group": "gnss", "lat": 0.038614530709004724, "lon": 35.11363136045733, "alt_km": 35795.2382069944, "timestamp": "2025-12-05T05:43:15.352873+00:00", "meta": {"OBJECT_NAME": "GALAXY 30 (WAAS/PRN 135)", "OBJECT_ID": "2020-056C", "EPOCH": "2025-12-04T14:10:38.722944", "MEAN_MOTION": 1.00270006, "ECCENTRICITY": 0.0002489, "INCLINATION": 0.0158, "RA_OF_ASC_NODE": 328.6937, "ARG_OF_PERICENTER": 280.7734, "MEAN_ANOMALY": 271.8612, "EPHEMERIS_TYPE": 0, "CLASSIFICATION_TYPE": "U", "NORAD_CAT_ID": 46114, "ELEMENT_SET_NO": 999, "REV_AT_EPOCH": 1934, "BSTAR": 0, "MEAN_MOTION_DOT": 5.1e-07, "MEAN_MOTION_DDOT": 0}, "tle": {"line1": "1 46114U 20056C   25338.59072596  .00000051  00000+0  00000+0 0  9997", "line2": "2 46114   0.0158 328.6937 0002489 280.7734 271.8612  1.00270006 19344"}}, "geometry": {"type": "Point", "coordinates": [35.11363136045733, 0.038614530709004724]}}, {"type": "Feature", "properties": {"norad_id": 46805, "name": "COSMOS 2547 (705K)", "group": "gnss", "lat": 61.31225754219465, "lon": -100.78068296376654, "alt_km": 19137.63422860827, "timestamp": "2025-12-05T05:43:15.352887+00:00", "meta": {"OBJECT_NAME": "COSMOS 2547 (705K)", "OBJECT_ID": "2020-075A", "EPOCH": "2025-12-04T04:48:34.576416", "MEAN_MOTION": 2.13099889, "ECCENTRICITY": 0.0006264, "INCLINATION": 64.5958, "RA_OF_ASC_NODE": 198.9817, "ARG_OF_PERICENTER": 229.2044, "MEAN_ANOMALY": 130.8379, "EPHEMERIS_TYPE": 0, "CLASSIFICATION_TYPE": "U", "NORAD_CAT_ID": 46805, "ELEMENT_SET_NO": 999, "REV_AT_EPOCH": 3975, "BSTAR": 0, "MEAN_MOTION_DOT": 1.01e-06, "MEAN_MOTION_DDOT": 0}, "tle": {"line1": "1 46805U 20075A   25338.20040019  .00000101  00000+0  00000+0 0  9994", "line2": "2 46805  64.5958 198.9817 0006264 229.2044 130.8379  2.13099889 39750"}}, "geometry": {"type": "Point", "coordinates": [-100.78068296376654, 61.31225754219465]}}, {"type": "Feature", "properties": {"norad_id": 46826, "name": "GPS BIII-4  (PRN 14)", "group": "gnss", "lat": -44.71673019461227, "lon": 172.70173802572126, "alt_km": 20202.285698730517, "timestamp": "2025-12-05T05:43:15.352898+00:00", "meta": {"OBJECT_NAME": "GPS BIII-4  (PRN 14)", "OBJECT_ID": "2020-078A", "EPOCH": "2025-11-12T03:01:29.190720", "MEAN_MOTION": 2.00567032, "ECCENTRICITY": 0.0063911, "INCLINATION": 54.0223, "RA_OF_ASC_NODE": 219.5836, "ARG_OF_PERICENTER": 203.4986, "MEAN_ANOMALY": 326.7754, "EPHEMERIS_TYPE": 0, "CLASSIFICATION_TYPE": "U", "NORAD_CAT_ID": 46826, "ELEMENT_SET_NO": 999, "REV_AT_EPOCH": 3715, "BSTAR": 0, "MEAN_MOTION_DOT": -3.4e-07, "MEAN_MOTION_DDOT": 0}, "tle": {"line1": "1 46826U 20078A   25316.12603230 -.00000034  00000+0  00000+0 0  9993", "line2": "2 46826  54.0223 219.5836 0063911 203.4986 326.7754  2.00567032 37155"}}, "geometry": {"type": "Point", "coordinates": [172.70173802572126, -44.71673019461227]}}, {"type": "Feature", "properties": {"norad_id": 48859, "name": "GPS BIII-5  (PRN 11)", "group": "gnss", "lat": 42.64190375163157, "lon": 120.5295562948806, "alt_km": 20198.826622006865, "timestamp": "2025-12-05T05:43:15.352909+00:00", "meta": {"OBJECT_NAME": "GPS BIII-5  (PRN 11)", "OBJECT_ID": "2021-054A", "EPOCH": "2025-11-30T17:12:22.002912", "MEAN_MOTION": 2.00553932, "ECCENTRICITY": 0.0024653, "INCLINATION": 55.2606, "RA_OF_ASC_NODE": 340.4377, "ARG_OF_PERICENTER": 232.9477, "MEAN_ANOMALY": 227.2059, "EPHEMERIS_TYPE": 0, "CLASSIFICATION_TYPE": "U", "NORAD_CAT_ID": 48859, "ELEMENT_SET_NO": 999, "REV_AT_EPOCH": 3277, "BSTAR": 0, "MEAN_MOTION_DOT": -5.5e-07, "MEAN_MOTION_DDOT": 0}, "tle": {"line1": "1 48859U 21054A   25334.71692133 -.00000055  00000+0  00000+0 0  9994", "line2": "2 48859  55.2606 340.4377 0024653 232.9477 227.2059  2.00553932 32777"}}, "geometry": {"type": "Point", "coordinates": [120.5295562948806, 42.64190375163157]}}, {"type": "Feature", "properties": {"norad_id": 49336, "name": "QZS-1R (QZSS/PRN 196)", "group": "gnss", "lat": -14.902137434484931, "lon": -76.95180623275225, "alt_km": 34310.17319299429, "timestamp": "2025-12-05T05:43:15.352921+00:00", "meta": {"OBJECT_NAME": "QZS-1R (QZSS/PRN 196)", "OBJECT_ID": "2021-096A", "EPOCH": "2025-12-01T04:08:48.475392", "MEAN_MOTION": 1.0026089, "ECCENTRICITY": 0.0753298, "INCLINATION": 37.0524, "RA_OF_ASC_NODE": 82.5332, "ARG_OF_PERICENTER": 271.0716, "MEAN_ANOMALY": 274.2635, "EPHEMERIS_TYPE": 0, "CLASSIFICATION_TYPE": "U", "NORAD_CAT_ID": 49336, "ELEMENT_SET_NO": 999, "REV_AT_EPOCH": 1502, "BSTAR": 0, "MEAN_MOTION_DOT": -2.17e-06, "MEAN_MOTION_DDOT": 0}, "tle": {"line1": "1 49336U 21096A   25335.17278328 -.00000217  00000+0  00000+0 0  9998", "line2": "2 49336  37.0524  82.5332 0753298 271.0716 274.2635  1.00260890 15022"}}, "geometry": {"type": "Point", "coordinates": [-76.95180623275225, -14.902137434484931]}}, {"type": "Feature", "properties": {"norad_id": 49809, "name": "GSAT0223 (GALILEO 27)", "group": "gnss", "lat": -51.83197577742335, "lon": -137.9993316301233, "alt_km": 23213.605463195297, "timestamp": "2025-12-05T05:43:15.352933+00:00", "meta": {"OBJECT_NAME": "GSAT0223 (GALILEO 27)", "OBJECT_ID": "2021-116A", "EPOCH": "2025-12-03T22:51:48.276576", "MEAN_MOTION": 1.70475481, "ECCENTRICITY": 0.00047656, "INCLINATION": 57.2213, "RA_OF_ASC_NODE": 346.9508, "ARG_OF_PERICENTER": 249.4566, "MEAN_ANOMALY": 290.7436, "EPHEMERIS_TYPE": 0, "CLASSIFICATION_TYPE": "U", "NORAD_CAT_ID": 49809, "ELEMENT_SET_NO": 999, "REV_AT_EPOCH": 2485, "BSTAR": 0, "MEAN_MOTION_DOT": -6.9e-07, "MEAN_MOTION_DDOT": 0}, "tle": {"line1": "1 49809U 21116A   25337.95264209 -.00000069  00000+0  00000+0 0  9992", "line2": "2 49809  57.2213 346.9508 0004765 249.4566 290.7436  1.70475481 24852"}}, "geometry": {"type": "Point", "coordinates": [-137.9993316301233, -51.83197577742335]}}, {"type": "Feature", "properties": {"norad_id": 49810, "name": "GSAT0224 (GALILEO 28)", "group": "gnss", "lat": 1.5844844186346076, "lon": -12.06076376073371, "alt_km": 23226.64950544521, "timestamp": "2025-12-05T05:43:15.352944+00:00", "meta": {"OBJECT_NAME": "GSAT0224 (GALILEO 28)", "OBJECT_ID": "2021-116B", "EPOCH": "2025-12-04T08:26:39.031296", "MEAN_MOTION": 1.70475489, "ECCENTRICITY": 0.0004089, "INCLINATION": 57.2221, "RA_OF_ASC_NODE": 346.9386, "ARG_OF_PERICENTER": 249.8776, "MEAN_ANOMALY": 287.9091, "EPHEMERIS_TYPE": 0, "CLASSIFICATION_TYPE": "U", "NORAD_CAT_ID": 49810, "ELEMENT_SET_NO": 999, "REV_AT_EPOCH": 2488, "BSTAR": 0, "MEAN_MOTION_DOT": -7.1e-07, "MEAN_MOTION_DDOT": 0}, "tle": {"line1": "1 49810U 21116B   25338.35184064 -.00000071  00000+0  00000+0 0  9992", "line2": "2 49810  57.2221 346.9386 0004089 249.8776 287.9091  1.70475489 24889"}}, "geometry": {"type": "Point", "coordinates": [-12.06076376073371, 1.5844844186346076]}}]}